LUCH-1                  
1 23680U 95054A   26116.19280867 -.00000120  00000+0  00000+0 0  9991
2 23680  15.0281 359.6589 0005178 138.8422 219.9256  1.00266889111829
SL-12 R/B(2)            
1 23683U 95054D   26116.12872271 -.00000318  00000+0  00000+0 0  9992
2 23683  14.9909 359.4783 0018599  98.0777 263.1407  1.00176135111858
ARIANE 42L+3 R/B        
1 23687U 95055B   26115.43728704 -.00000111  00000+0  80358-3 0  9990
2 23687   5.1583 279.4673 7236987 303.0818   7.1269  2.22320629246895
USA 115 (MILSTAR-1 2)   
1 23712U 95060A   26116.27266917 -.00000096  00000+0  00000+0 0  9995
2 23712  14.0556   4.1391 0000872 349.6145 206.8680  1.00366325 32365
TITAN 401 CENTAUR R/B   
1 23713U 95060B   26115.98606581 -.00000171  00000+0  00000+0 0  9992
2 23713  14.3860 359.2589 0034934 224.5172 135.1598  1.00581204 24905
ISO                     
1 23715U 95062A   26115.94516227 -.00000073  00000+0 -20399-2 0  9997
2 23715   1.9185 329.4445 8354681 327.5986   1.5851  1.02201033113164
ARIANE 44P+3 R/B        
1 23716U 95062B   26116.14103012 -.00000623  00000+0  00000+0 0  9999
2 23716   5.0164  19.9790 8362868  26.1787 358.3986  0.95007312105717
GALS 2                  
1 23717U 95063A   26116.19280867 -.00000063  00000+0  00000+0 0  9998
2 23717  14.4676   2.9915 0009253 336.2200  21.7987  0.99875758111107
SL-12 R/B(2)            
1 23720U 95063D   26115.85470593  .00000046  00000+0  00000+0 0  9991
2 23720  14.1753 348.5637 0040758 192.1511 353.3548  1.00302316111467
INSAT-2C                
1 23731U 95067B   26115.59127931 -.00000363  00000+0  00000+0 0  9996
2 23731  14.2763   8.6592 0004446  24.6881 155.2402  0.99784827110889
GALAXY 3R (G-3R)        
1 23741U 95069A   26116.23446953 -.00000036  00000+0  00000+0 0  9996
2 23741  13.2408  16.6223 0003202  45.8672 116.4932  1.00321814111296
ABS-1A                  
1 23768U 96003A   26115.79481900  .00000019  00000+0  00000+0 0  9995
2 23768  12.5370  25.9455 0001130  26.5425 157.2252  0.99786440110659
DELTA 2 R/B(2)          
1 23770U 96003C   26116.21383397  .00000048  00000+0  00000+0 0  9999
2 23770  20.5984 140.3350 6914421 324.6530 277.1605  2.19763225243201
GORIZONT 31             
1 23775U 96005A   26116.32156104  .00000081  00000+0  00000+0 0  9999
2 23775  14.4096 354.9882 0021478 246.9237 297.9790  0.99891799110538
PAKSAT 1 (ANATOLIA 1)   
1 23779U 96006A   26116.51639883  .00000050  00000+0  00000+0 0  9991
2 23779  10.7555  46.3083 0004286 202.7502  32.4330  0.99588923110331
POLAR                   
1 23802U 96013A   26115.66170527  .00000018  00000+0  00000+0 0  9990
2 23802  79.8025 227.6602 6417643 210.8763  86.7147  1.29845763144176
INMARSAT 3-F1           
1 23839U 96020A   26115.70153990 -.00000292  00000+0  00000+0 0  9993
2 23839  10.4946  47.1095 0004031 332.8944  45.1712  0.99995250109736
