[{"OBJECT_NAME":"LUCH-1","OBJECT_ID":"1995-054A","EPOCH":"2026-04-26T04:37:38.669088","MEAN_MOTION":1.00266889,"ECCENTRICITY":0.0005178,"INCLINATION":15.0281,"RA_OF_ASC_NODE":359.6589,"ARG_OF_PERICENTER":138.8422,"MEAN_ANOMALY":219.9256,"EPHEMERIS_TYPE":0,"CLASSIFICATION_TYPE":"U","NORAD_CAT_ID":23680,"ELEMENT_SET_NO":999,"REV_AT_EPOCH":11182,"BSTAR":0,"MEAN_MOTION_DOT":-1.2e-6,"MEAN_MOTION_DDOT":0},{"OBJECT_NAME":"SL-12 R/B(2)","OBJECT_ID":"1995-054D","EPOCH":"2026-04-26T03:05:21.642144","MEAN_MOTION":1.00176135,"ECCENTRICITY":0.0018599,"INCLINATION":14.9909,"RA_OF_ASC_NODE":359.4783,"ARG_OF_PERICENTER":98.0777,"MEAN_ANOMALY":263.1407,"EPHEMERIS_TYPE":0,"CLASSIFICATION_TYPE":"U","NORAD_CAT_ID":23683,"ELEMENT_SET_NO":999,"REV_AT_EPOCH":11185,"BSTAR":0,"MEAN_MOTION_DOT":-3.18e-6,"MEAN_MOTION_DDOT":0},{"OBJECT_NAME":"ARIANE 42L+3 R/B","OBJECT_ID":"1995-055B","EPOCH":"2026-04-25T10:29:41.600256","MEAN_MOTION":2.22320629,"ECCENTRICITY":0.72369872,"INCLINATION":5.1583,"RA_OF_ASC_NODE":279.4673,"ARG_OF_PERICENTER":303.0818,"MEAN_ANOMALY":7.1269,"EPHEMERIS_TYPE":0,"CLASSIFICATION_TYPE":"U","NORAD_CAT_ID":23687,"ELEMENT_SET_NO":999,"REV_AT_EPOCH":24689,"BSTAR":0.00080357699,"MEAN_MOTION_DOT":-1.11e-6,"MEAN_MOTION_DDOT":0},{"OBJECT_NAME":"USA 115 (MILSTAR-1 2)","OBJECT_ID":"1995-060A","EPOCH":"2026-04-26T06:32:38.616288","MEAN_MOTION":1.00366325,"ECCENTRICITY":8.72e-5,"INCLINATION":14.0556,"RA_OF_ASC_NODE":4.1391,"ARG_OF_PERICENTER":349.6145,"MEAN_ANOMALY":206.868,"EPHEMERIS_TYPE":0,"CLASSIFICATION_TYPE":"U","NORAD_CAT_ID":23712,"ELEMENT_SET_NO":999,"REV_AT_EPOCH":3236,"BSTAR":0,"MEAN_MOTION_DOT":-9.6e-7,"MEAN_MOTION_DDOT":0},{"OBJECT_NAME":"TITAN 401 CENTAUR R/B","OBJECT_ID":"1995-060B","EPOCH":"2026-04-25T23:39:56.085984","MEAN_MOTION":1.00581204,"ECCENTRICITY":0.0034934,"INCLINATION":14.386,"RA_OF_ASC_NODE":359.2589,"ARG_OF_PERICENTER":224.5172,"MEAN_ANOMALY":135.1598,"EPHEMERIS_TYPE":0,"CLASSIFICATION_TYPE":"U","NORAD_CAT_ID":23713,"ELEMENT_SET_NO":999,"REV_AT_EPOCH":2490,"BSTAR":0,"MEAN_MOTION_DOT":-1.71e-6,"MEAN_MOTION_DDOT":0},{"OBJECT_NAME":"ISO","OBJECT_ID":"1995-062A","EPOCH":"2026-04-25T22:41:02.020128","MEAN_MOTION":1.02201033,"ECCENTRICITY":0.8354681,"INCLINATION":1.9185,"RA_OF_ASC_NODE":329.4445,"ARG_OF_PERICENTER":327.5986,"MEAN_ANOMALY":1.5851,"EPHEMERIS_TYPE":0,"CLASSIFICATION_TYPE":"U","NORAD_CAT_ID":23715,"ELEMENT_SET_NO":999,"REV_AT_EPOCH":11316,"BSTAR":-0.0020399,"MEAN_MOTION_DOT":-7.3e-7,"MEAN_MOTION_DDOT":0},{"OBJECT_NAME":"ARIANE 44P+3 R/B","OBJECT_ID":"1995-062B","EPOCH":"2026-04-26T03:23:05.002368","MEAN_MOTION":0.95007312,"ECCENTRICITY":0.8362868,"INCLINATION":5.0164,"RA_OF_ASC_NODE":19.979,"ARG_OF_PERICENTER":26.1787,"MEAN_ANOMALY":358.3986,"EPHEMERIS_TYPE":0,"CLASSIFICATION_TYPE":"U","NORAD_CAT_ID":23716,"ELEMENT_SET_NO":999,"REV_AT_EPOCH":10571,"BSTAR":0,"MEAN_MOTION_DOT":-6.23e-6,"MEAN_MOTION_DDOT":0},{"OBJECT_NAME":"GALS 2","OBJECT_ID":"1995-063A","EPOCH":"2026-04-26T04:37:38.669088","MEAN_MOTION":0.99875758,"ECCENTRICITY":0.0009253,"INCLINATION":14.4676,"RA_OF_ASC_NODE":2.9915,"ARG_OF_PERICENTER":336.22,"MEAN_ANOMALY":21.7987,"EPHEMERIS_TYPE":0,"CLASSIFICATION_TYPE":"U","NORAD_CAT_ID":23717,"ELEMENT_SET_NO":999,"REV_AT_EPOCH":11110,"BSTAR":0,"MEAN_MOTION_DOT":-6.3e-7,"MEAN_MOTION_DDOT":0},{"OBJECT_NAME":"SL-12 R/B(2)","OBJECT_ID":"1995-063D","EPOCH":"2026-04-25T20:30:46.592352","MEAN_MOTION":1.00302316,"ECCENTRICITY":0.0040758,"INCLINATION":14.1753,"RA_OF_ASC_NODE":348.5637,"ARG_OF_PERICENTER":192.1511,"MEAN_ANOMALY":353.3548,"EPHEMERIS_TYPE":0,"CLASSIFICATION_TYPE":"U","NORAD_CAT_ID":23720,"ELEMENT_SET_NO":999,"REV_AT_EPOCH":11146,"BSTAR":0,"MEAN_MOTION_DOT":4.6e-7,"MEAN_MOTION_DDOT":0},{"OBJECT_NAME":"INSAT-2C","OBJECT_ID":"1995-067B","EPOCH":"2026-04-25T14:11:26.532384","MEAN_MOTION":0.99784827,"ECCENTRICITY":0.00044464,"INCLINATION":14.2763,"RA_OF_ASC_NODE":8.6592,"ARG_OF_PERICENTER":24.6881,"MEAN_ANOMALY":155.2402,"EPHEMERIS_TYPE":0,"CLASSIFICATION_TYPE":"U","NORAD_CAT_ID":23731,"ELEMENT_SET_NO":999,"REV_AT_EPOCH":11088,"BSTAR":0,"MEAN_MOTION_DOT":-3.63e-6,"MEAN_MOTION_DDOT":0},{"OBJECT_NAME":"GALAXY 3R (G-3R)","OBJECT_ID":"1995-069A","EPOCH":"2026-04-26T05:37:38.167392","MEAN_MOTION":1.00321814,"ECCENTRICITY":0.0003202,"INCLINATION":13.2408,"RA_OF_ASC_NODE":16.6223,"ARG_OF_PERICENTER":45.8672,"MEAN_ANOMALY":116.4932,"EPHEMERIS_TYPE":0,"CLASSIFICATION_TYPE":"U","NORAD_CAT_ID":23741,"ELEMENT_SET_NO":999,"REV_AT_EPOCH":11129,"BSTAR":0,"MEAN_MOTION_DOT":-3.6e-7,"MEAN_MOTION_DDOT":0},{"OBJECT_NAME":"ABS-1A","OBJECT_ID":"1996-003A","EPOCH":"2026-04-25T19:04:32.361600","MEAN_MOTION":0.9978644,"ECCENTRICITY":0.000113,"INCLINATION":12.537,"RA_OF_ASC_NODE":25.9455,"ARG_OF_PERICENTER":26.5425,"MEAN_ANOMALY":157.2252,"EPHEMERIS_TYPE":0,"CLASSIFICATION_TYPE":"U","NORAD_CAT_ID":23768,"ELEMENT_SET_NO":999,"REV_AT_EPOCH":11065,"BSTAR":0,"MEAN_MOTION_DOT":1.9e-7,"MEAN_MOTION_DDOT":0},{"OBJECT_NAME":"DELTA 2 R/B(2)","OBJECT_ID":"1996-003C","EPOCH":"2026-04-26T05:07:55.255008","MEAN_MOTION":2.19763225,"ECCENTRICITY":0.6914421,"INCLINATION":20.5984,"RA_OF_ASC_NODE":140.335,"ARG_OF_PERICENTER":324.653,"MEAN_ANOMALY":277.1605,"EPHEMERIS_TYPE":0,"CLASSIFICATION_TYPE":"U","NORAD_CAT_ID":23770,"ELEMENT_SET_NO":999,"REV_AT_EPOCH":24320,"BSTAR":0,"MEAN_MOTION_DOT":4.8e-7,"MEAN_MOTION_DDOT":0},{"OBJECT_NAME":"GORIZONT 31","OBJECT_ID":"1996-005A","EPOCH":"2026-04-26T07:43:02.873856","MEAN_MOTION":0.99891799,"ECCENTRICITY":0.0021478,"INCLINATION":14.4096,"RA_OF_ASC_NODE":354.9882,"ARG_OF_PERICENTER":246.9237,"MEAN_ANOMALY":297.979,"EPHEMERIS_TYPE":0,"CLASSIFICATION_TYPE":"U","NORAD_CAT_ID":23775,"ELEMENT_SET_NO":999,"REV_AT_EPOCH":11053,"BSTAR":0,"MEAN_MOTION_DOT":8.1e-7,"MEAN_MOTION_DDOT":0},{"OBJECT_NAME":"PAKSAT 1 (ANATOLIA 1)","OBJECT_ID":"1996-006A","EPOCH":"2026-04-26T12:23:36.858912","MEAN_MOTION":0.99588923,"ECCENTRICITY":0.0004286,"INCLINATION":10.7555,"RA_OF_ASC_NODE":46.3083,"ARG_OF_PERICENTER":202.7502,"MEAN_ANOMALY":32.433,"EPHEMERIS_TYPE":0,"CLASSIFICATION_TYPE":"U","NORAD_CAT_ID":23779,"ELEMENT_SET_NO":999,"REV_AT_EPOCH":11033,"BSTAR":0,"MEAN_MOTION_DOT":5.0e-7,"MEAN_MOTION_DDOT":0},{"OBJECT_NAME":"POLAR","OBJECT_ID":"1996-013A","EPOCH":"2026-04-25T15:52:51.335328","MEAN_MOTION":1.29845763,"ECCENTRICITY":0.6417643,"INCLINATION":79.8025,"RA_OF_ASC_NODE":227.6602,"ARG_OF_PERICENTER":210.8763,"MEAN_ANOMALY":86.7147,"EPHEMERIS_TYPE":0,"CLASSIFICATION_TYPE":"U","NORAD_CAT_ID":23802,"ELEMENT_SET_NO":999,"REV_AT_EPOCH":14417,"BSTAR":0,"MEAN_MOTION_DOT":1.8e-7,"MEAN_MOTION_DDOT":0},{"OBJECT_NAME":"INMARSAT 3-F1","OBJECT_ID":"1996-020A","EPOCH":"2026-04-25T16:50:13.047360","MEAN_MOTION":0.9999525,"ECCENTRICITY":0.00040318,"INCLINATION":10.4946,"RA_OF_ASC_NODE":47.1095,"ARG_OF_PERICENTER":332.8944,"MEAN_ANOMALY":45.1712,"EPHEMERIS_TYPE":0,"CLASSIFICATION_TYPE":"U","NORAD_CAT_ID":23839,"ELEMENT_SET_NO":999,"REV_AT_EPOCH":10973,"BSTAR":0,"MEAN_MOTION_DOT":-2.92e-6,"MEAN_MOTION_DDOT":0}]
